TIANMU-1 07             
1 57399U 23101A   26065.57454230  .00008352  00000+0  29795-3 0  9991
2 57399  97.2728 118.5929 0004609 142.4105 217.7458 15.29118809145964
STARLINK-30959          
1 58442U 23183F   26068.97040888 -.00002661  00000+0 -89464-4 0  9997
2 58442  43.0030  39.4885 0001273 267.6758  92.3948 15.26773762126781
